SL-3 R/B                
1 19046U 88032B   18094.73018912  .00000824  00000-0  65755-4 0  9990
2 19046  97.4892 137.5536 0037520  63.3502 297.1559 15.02401404616122
SL-16 R/B               
1 19120U 88039B   18094.89805716 -.00000110  00000-0 -29490-4 0  9999
2 19120  71.0129  68.5462 0019723 102.4887 257.8446 14.19182095547505
COSMOS 1953             
1 19210U 88050A   18095.42526769 -.00000037  00000-0 -45669-5 0  9995
2 19210  82.5136 109.9967 0012909 352.2789   7.8237 15.05525125621803
SL-8 R/B                
1 19257U 88053B   18094.97412625 -.00000011  00000-0  51864-5 0  9998
2 19257  74.0505  40.1023 0021339 220.9152 205.0197 14.37393388560415
COSMOS 1975             
1 19573U 88093A   18095.41624770  .00000019  00000-0 -76388-6 0  9996
2 19573  82.5198  62.6916 0015080  29.9103 330.2981 15.04430671603745
SL-14 R/B               
1 19574U 88093B   18094.92185439  .00000079  00000-0  67374-5 0  9995
2 19574  82.5326 232.2949 0020432 232.2623 260.4730 14.83258714592692
SL-16 R/B               
1 19650U 88102B   18094.95278357  .00000130  00000-0  90514-4 0  9995
2 19650  70.9981 121.5907 0012011 100.5708 259.6769 14.15769417517011
INTERCOSMOS 24          
1 20261U 89080A   18095.22495913  .00000174  00000-0  43136-4 0  9997
2 20261  82.6012 180.7811 1204761 143.2442 225.7763 12.55981067302628
SL-14 R/B               
1 20262U 89080C   18094.87040612  .00000049  00000-0  13747-4 0  9996
2 20262  82.5949 229.2643 1236387 311.6407  38.5000 12.48888103298559
DELTA 1 R/B             
1 20323U 89089B   18095.30948926  .00000027  00000-0  16321-4 0  9994
2 20323  97.1204   0.3770 0070399 241.4798 117.9299 14.48249471497007
DELTA 2 R/B(1)          
1 20453U 90008B   18094.85566776  .00001644  00000-0  96790-4 0  9993
2 20453  35.6246 315.5011 0285316  75.7503 287.4720 14.84014994491547
COSMOS 2058             
1 20465U 90010A   18095.13280463  .00000238  00000-0  17930-4 0  9994
2 20465  82.4894 327.1254 0016471  36.1485 324.0848 14.97696285529039
SL-14 R/B               
1 20466U 90010B   18095.12178654  .00000045  00000-0  27249-5 0  9993
2 20466  82.5003  99.4532 0022127  99.0368 261.3351 14.81318436520714
SL-14 R/B               
1 20511U 90018B   18094.91786410  .00000093  00000-0  92119-5 0  9994
2 20511  82.5249  42.4295 0016189 233.5591 189.6143 14.79976295494110
HST                     
1 20580U 90037B   18095.42334167  .00000475  00000-0  18132-4 0  9992
2 20580  28.4689 236.1079 0002939  77.2371 319.6341 15.09010546334460
SL-16 R/B               
1 20625U 90046B   18094.89221787 -.00000088  00000-0 -20745-4 0  9990
2 20625  70.9986 256.9009 0013570  14.9570 345.1951 14.14632693439091
COSMOS 2084             
1 20663U 90055A   18094.89991692  .00000092  00000-0  25867-4 0  9994
2 20663  62.7935 334.3345 0128980 118.7021 242.7108 14.91798972503317
SL-6 R/B(2)             
1 20666U 90055D   18094.96438574  .00000074  00000-0  24756-4 0  9996
2 20666  62.7841 252.2241 0105601 138.9797 221.9301 14.92106067504716
SL-8 R/B                
1 20775U 90078B   18095.31110557  .00002896  00000-0  14153-3 0  9993
2 20775  82.9301 168.4947 0584228 161.3251 201.0404 14.31895131390552
SL-8 R/B                
1 21088U 91006B   18095.21962063  .00000072  00000-0  57618-4 0  9997
2 21088  82.9440 163.1495 0021694 219.5904 193.3691 13.77076588365793
OKEAN-3                 
1 21397U 91039A   18095.41960306  .00000209  00000-0  17732-4 0  9991
2 21397  82.5234 220.7795 0017319 344.7165  15.3529 14.92645196453375
COSMOS 2151             
1 21422U 91042A   18095.15947105  .00000173  00000-0  14498-4 0  9993
2 21422  82.5005 328.5873 0015299  44.1942 316.0497 14.91937753452032
SL-14 R/B               
1 21423U 91042B   18094.91922306  .00000061  00000-0  50334-5 0  9999
2 21423  82.4951  48.7890 0018128  19.8159 340.3754 14.79727487424688
ERS-1                   
1 21574U 91050A   18094.88812705  .00000062  00000-0  34911-4 0  9995
2 21574  98.4973  42.9775 0033241 162.3392 197.8959 14.37637553399490
ARIANE 40 R/B           
1 21610U 91050F   18095.19242081 -.00000008  00000-0  11578-4 0  9990
2 21610  98.5628 157.8974 0004084 136.7977 286.6516 14.40831808402161
INTERCOSMOS 25          
1 21819U 91086A   18095.20989940  .00001060  00000-0  20990-3 0  9999
2 21819  82.5837 247.7055 1519054 185.4299 172.8496 12.04837365147445
SL-14 R/B               
1 21820U 91086B   18094.94103435  .00000106  00000-0  16052-4 0  9993
2 21820  82.5580 306.3822 1576739  25.4936 341.6025 11.93373752141585
SL-8 R/B                
1 21876U 92008B   18094.95145990  .00000003  00000-0 -12574-4 0  9994
2 21876  82.9237 260.3479 0033696 300.7962 215.2884 13.75619355311260
SL-8 R/B                
1 21938U 92020B   18094.67167519 -.00000017  00000-0 -33364-4 0  9993
2 21938  82.9294 144.0762 0030699  98.8151  28.7920 13.75267631303052
SL-16 R/B               
1 22220U 92076B   18095.20471704 -.00000232  00000-0 -92645-4 0  9999
2 22220  71.0001 164.5601 0013435 198.2750 226.1950 14.16429621312120
SL-16 R/B               
1 22285U 92093B   18094.90905917 -.00000287  00000-0 -12373-3 0  9992
2 22285  71.0222 320.3197 0003165   8.4401 351.6774 14.15021487303521
COSMOS 2228             
1 22286U 92094A   18095.40260765  .00000164  00000-0  15174-4 0  9990
2 22286  82.5175  98.5140 0019971 228.5556 131.3946 14.87920738365940
SL-16 R/B               
1 22566U 93016B   18094.68165809  .00000291  00000-0  17481-3 0  9991
2 22566  71.0080 175.0528 0008756  41.3446 318.8338 14.14957995292501
COSMOS 2242             
1 22626U 93024A   18094.76679203  .00000161  00000-0  14908-4 0  9992
2 22626  82.5199 126.9205 0017758 229.7692 130.1973 14.87784425349509
SL-16 R/B               
1 22803U 93059B   18094.95956324  .00000146  00000-0  96587-4 0  9996
2 22803  70.9927 354.6020 0019226 297.7230  62.1943 14.16789953269354
ARIANE 40 R/B           
1 22830U 93061H   18093.07933868 -.00000052  00000-0 -20494-5 0  9992
2 22830  98.8645 119.8285 0010912 156.9077 203.2601 14.31413704279717
COSMOS 2278             
1 23087U 94023A   18094.50064345  .00000273  00000-0  16913-3 0  9992
2 23087  71.0519 110.1146 0007556 140.7228 219.4443 14.13766731235664
SL-16 R/B               
1 23088U 94023B   18095.16156490 -.00000278  00000-0 -11988-3 0  9993
2 23088  71.0003  29.2423 0003368 335.1185  24.9774 14.14663124236839
SL-16 R/B               
1 23343U 94074B   18094.78464413 -.00000031  00000-0  31500-5 0  9997
2 23343  98.1141 139.1293 0006209 207.5574 280.9487 14.76727201259861
SL-16 R/B               
1 23405U 94077B   18094.91331535 -.00000269  00000-0 -11357-3 0  9992
2 23405  70.9838 322.0459 0004900 253.7864 106.2719 14.15199664206532
ERS-2                   
1 23560U 95021A   18094.63583619  .00000970  00000-0  46879-4 0  9990
2 23560  98.5450 131.3604 0004417  50.9782 309.1843 15.21605853219662
ARIANE 40+ R/B          
1 23561U 95021B   18094.91453677  .00000017  00000-0  21033-4 0  9999
2 23561  98.7956 107.8937 0008032 113.2087 306.8809 14.37864921202950
SL-16 R/B               
1 23705U 95058B   18095.17698234 -.00000271  00000-0 -11501-3 0  9990
2 23705  71.0196 136.4210 0014078 220.9902 139.0163 14.15112445158492
SL-16 R/B               
1 24298U 96051B   18094.78081299 -.00000167  00000-0 -63827-4 0  9998
2 24298  70.8398 167.5271 0013686 113.7326 246.5232 14.12452730112993
ORBVIEW 2 (SEASTAR)     
1 24883U 97037A   18095.17448560  .00000060  00000-0  37556-4 0  9995
2 24883  98.5536 205.2296 0001717 352.7238   7.3922 14.33444455 93737
SL-16 R/B               
1 25400U 98043G   18094.87317318  .00000000  00000-0  18239-4 0  9992
2 25400  98.5267  39.3416 0010211 156.9872 203.1767 14.25432092 26623
SL-16 R/B               
1 25407U 98045B   18094.59946035  .00000076  00000-0  62680-4 0  9996
2 25407  71.0111 149.0350 0005977 135.1467 225.0140 14.15777199 17168
ISS (ZARYA)             
1 25544U 98067A   18095.61526003  .00002218  00000-0  40613-4 0  9997
2 25544  51.6440  20.4995 0001453 305.7937 115.1998 15.54198925107234
SL-8 R/B                
1 25723U 99022C   18095.26037786  .00008089  00000-0  10894-3 0  9993
2 25723  48.4157  44.7551 0008774   2.1124 357.9858 15.58668036 51999
CZ-4B R/B               
1 25732U 99025C   18094.95309730 -.00000039  00000-0  33262-5 0  9996
2 25732  98.9963 105.3062 0037007 342.6948  72.9626 14.17646902977875
OKEAN-O                 
1 25860U 99039A   18094.95140478  .00000012  00000-0  93762-5 0  9996
2 25860  98.2139  89.2791 0000808  79.6832 280.4468 14.76539171  6880
SL-16 R/B               
1 25861U 99039B   18095.00242509  .00000016  00000-0  96765-5 0  9992
2 25861  98.1458  73.9482 0014796 218.9947 182.0432 14.78469809  8890
TERRA                   
1 25994U 99068A   18095.18807449  .00000050  00000-0  21058-4 0  9990
2 25994  98.2096 171.0999 0000873  78.6656 281.4634 14.57092457973198
ENVISAT                 
1 27386U 02009A   18095.09047098  .00000018  00000-0  19496-4 0  9999
2 27386  98.1926 132.5628 0001190  72.1978 287.9336 14.37919172843024
IDEFIX & ARIANE 42P R/B 
1 27422U 02021B   18094.94747918 -.00000043  00000-0 -10208-5 0  9998
2 27422  98.2521  84.3661 0013582  91.7417 268.5322 14.29260103830245
AQUA                    
1 27424U 02022A   18094.87015031  .00000105  00000-0  33399-4 0  9999
2 27424  98.2044  37.1953 0000965 333.9909  56.8783 14.57107914846703
CZ-4B R/B               
1 27432U 02024C   18094.90409947 -.00000020  00000-0  13615-4 0  9993
2 27432  99.0279  75.7226 0049542 287.9913 123.9193 14.14061377819941
MIDORI II (ADEOS-II)    
1 27597U 02056A   18094.88536094  .00000033  00000-0  30409-4 0  9994
2 27597  98.4132  57.7088 0001299 131.4528 228.6765 14.27341616797036
H-2A R/B                
1 27601U 02056E   18094.82504309  .00000038  00000-0  28813-4 0  9999
2 27601  98.3359 156.9588 0072905 149.5381 344.2765 14.31832383799542
